NORAD_CAT_ID,OBJECT_NAME,OBJECT_TYPE,EPOCH,MEAN_MOTION,ECCENTRICITY,INCLINATION,RA_OF_ASC_NODE,ARG_OF_PERICENTER,MEAN_ANOMALY,BSTAR,MEAN_MOTION_DOT,MEAN_MOTION_DDOT,TLE_LINE0,TLE_LINE1,TLE_LINE2,SEMIMAJOR_AXIS,PERIOD,APOGEE,PERIGEE,DECAYED
54780.0,STARLINK-5449,PAYLOAD,2024-01-13 04:10:01,15.08840318,0.000174,53.2183,319.8292,98.3671,261.7518,9.6545e-05,1.249e-05,0.0,0 STARLINK-5449,1 54780U 22175Y   24013.17362931  .00001249  00000-0  96545-4 0  9992,2 54780  53.2183 319.8292 0001740  98.3671 261.7518 15.08840318 59235,6917.879,95.438,540.948,538.541,0.0
54780.0,STARLINK-5449,PAYLOAD,2024-01-13 05:45:24,15.08846473,0.0001711,53.2187,319.5305,99.0591,261.0595,0.00018998,2.737e-05,0.0,0 STARLINK-5449,1 54780U 22175Y   24013.23986629  .00002737  00000-0  18998-3 0  9993,2 54780  53.2187 319.5305 0001711  99.0591 261.0595 15.08846473 61406,6917.861,95.437,540.909,538.542,0.0
54780.0,STARLINK-5449,PAYLOAD,2024-01-14 05:36:11,15.0885046,0.0001947,53.219,315.0741,117.2087,242.9104,0.00018986,2.736e-05,0.0,0 STARLINK-5449,1 54780U 22175Y   24014.23346227  .00002736  00000-0  18986-3 0  9994,2 54780  53.2190 315.0741 0001947 117.2087 242.9104 15.08850460 59399,6917.848,95.437,541.06,538.367,0.0
54780.0,STARLINK-5449,PAYLOAD,2024-01-14 19:54:39,15.08842585,0.0001838,53.2196,312.3918,114.7496,245.3688,5.4217e-05,5.75e-06,0.0,0 STARLINK-5449,1 54780U 22175Y   24014.82962628  .00000575  00000-0  54217-4 0  9995,2 54780  53.2196 312.3918 0001838 114.7496 245.3688 15.08842585 59489,6917.872,95.437,541.009,538.466,0.0
54780.0,STARLINK-5449,PAYLOAD,2024-01-15 05:26:58,15.0885894,0.0001703,53.2177,310.6132,107.8524,252.2654,0.00040572,6.178e-05,0.0,0 STARLINK-5449,1 54780U 22175Y   24015.22706047  .00006178  00000-0  40572-3 0  9994,2 54780  53.2177 310.6132 0001703 107.8524 252.2654 15.08858940 59542,6917.822,95.436,540.866,538.509,0.0
54780.0,STARLINK-5449,PAYLOAD,2024-01-16 03:42:22,15.08843131,0.0001702,53.2183,306.4504,102.2751,257.8432,7.7181e-05,9.41e-06,0.0,0 STARLINK-5449,1 54780U 22175Y   24016.15442702  .00000941  00000-0  77181-4 0  9991,2 54780  53.2183 306.4504 0001702 102.2751 257.8432 15.08843131 59681,6917.871,95.437,540.913,538.558,0.0
54780.0,STARLINK-5449,PAYLOAD,2024-01-16 05:17:45,15.08844844,0.000174,53.2189,306.1537,107.9033,252.2149,0.00011853,1.599e-05,0.0,0 STARLINK-5449,1 54780U 22175Y   24016.22066632  .00001599  00000-0  11853-3 0  9996,2 54780  53.2189 306.1537 0001740 107.9033 252.2149 15.08844844 61855,6917.866,95.437,540.934,538.527,0.0
54780.0,STARLINK-5449,PAYLOAD,2024-01-17 00:22:23,15.08842811,0.0001714,53.2188,302.5859,104.9521,255.1661,0.00014169,1.968e-05,0.0,0 STARLINK-5449,1 54780U 22175Y   24017.01554822  .00001968  00000-0  14169-3 0  9990,2 54780  53.2188 302.5859 0001714 104.9521 255.1661 15.08842811 61977,6917.872,95.437,540.923,538.551,0.0
54780.0,STARLINK-5449,PAYLOAD,2024-01-17 22:37:47,15.08835965,0.0001705,53.2186,298.4232,108.0859,252.0319,5.2642e-05,5.5e-06,0.0,0 STARLINK-5449,1 54780U 22175Y   24017.94291276  .00000550  00000-0  52642-4 0  9998,2 54780  53.2186 298.4232 0001705 108.0859 252.0319 15.08835965 62117,6917.893,95.438,540.937,538.578,0.0
54780.0,STARLINK-5449,PAYLOAD,2024-01-18 03:23:57,15.08839822,0.0001677,53.218,297.5313,109.3462,250.7711,7.2778e-05,8.7e-06,0.0,0 STARLINK-5449,1 54780U 22175Y   24018.14163195  .00000870  00000-0  72778-4 0  9996,2 54780  53.2180 297.5313 0001677 109.3462 250.7711 15.08839822 59981,6917.881,95.438,540.906,538.586,0.0
54780.0,STARLINK-5449,PAYLOAD,2024-01-18 22:28:34,15.08837881,0.0001488,53.2168,293.9572,90.0091,270.1072,1.9356e-06,-2.57e-06,0.0,0 STARLINK-5449,1 54780U 22175Y   24018.93651537 -.00000257  00000-0  19356-5 0  9999,2 54780  53.2168 293.9572 0001488  90.0091 270.1072 15.08837881 62262,6917.887,95.438,540.781,538.722,0.0
54780.0,STARLINK-5449,PAYLOAD,2024-01-19 03:14:43,15.08849494,0.0001419,53.2175,293.0691,95.921,264.1944,0.00028119,4.191e-05,0.0,0 STARLINK-5449,1 54780U 22175Y   24019.13523047  .00004191  00000-0  28119-3 0  9991,2 54780  53.2175 293.0691 0001419  95.9210 264.1944 15.08849494 62291,6917.851,95.437,540.698,538.735,0.0
54780.0,STARLINK-5449,PAYLOAD,2024-01-19 22:19:21,15.08842065,0.0001702,53.2169,289.4998,124.987,235.1282,-4.8975e-05,-1.067e-05,0.0,0 STARLINK-5449,1 54780U 22175Y   24019.93011300 -.00001067  00000-0 -48975-4 0  9997,2 54780  53.2169 289.4998 0001702 124.9870 235.1282 15.08842065 62417,6917.874,95.437,540.916,538.562,0.0
54780.0,STARLINK-5449,PAYLOAD,2024-01-20 03:05:30,15.08845171,0.0001452,53.2178,288.6071,108.9398,251.1752,0.00015251,2.14e-05,0.0,0 STARLINK-5449,1 54780U 22175Y   24020.12883083  .00002140  00000-0  15251-3 0  9996,2 54780  53.2178 288.6071 0001452 108.9398 251.1752 15.08845171 60283,6917.865,95.437,540.734,538.725,0.0
54780.0,STARLINK-5449,PAYLOAD,2024-01-20 17:24:00,15.08833898,0.0001409,53.2168,285.932,110.3603,249.754,-0.00013632,-2.456e-05,0.0,0 STARLINK-5449,1 54780U 22175Y   24020.72500011 -.00002456  00000-0 -13632-3 0  9992,2 54780  53.2168 285.9320 0001409 110.3603 249.7540 15.08833898 60378,6917.899,95.438,540.739,538.789,0.0
54780.0,STARLINK-5449,PAYLOAD,2024-01-20 22:10:09,15.08842364,0.0001349,53.2166,285.0424,121.1141,238.9984,-4.8503e-05,-1.06e-05,0.0,0 STARLINK-5449,1 54780U 22175Y   24020.92371882 -.00001060  00000-0 -48503-4 0  9992,2 54780  53.2166 285.0424 0001349 121.1141 238.9984 15.08842364 62565,6917.873,95.437,540.671,538.805,0.0
54780.0,STARLINK-5449,PAYLOAD,2024-01-20 23:45:32,15.08842241,0.000141,53.217,284.7484,85.9031,274.2122,-1.4221e-05,-5.14e-06,0.0,0 STARLINK-5449,1 54780U 22175Y   24020.98996074 -.00000514  00000-0 -14221-4 0  9997,2 54780  53.2170 284.7484 0001410  85.9031 274.2122 15.08842241 60419,6917.874,95.437,540.714,538.763,0.0
54780.0,STARLINK-5449,PAYLOAD,2024-01-21 22:00:56,15.08847062,0.0001372,53.2168,280.5831,87.9649,272.15,6.5561e-05,7.56e-06,0.0,0 STARLINK-5449,1 54780U 22175Y   24021.91731490  .00000756  00000-0  65561-4 0  9999,2 54780  53.2168 280.5831 0001372  87.9649 272.1500 15.08847062 62718,6917.859,95.437,540.673,538.775,0.0
54780.0,STARLINK-5449,PAYLOAD,2024-01-21 23:36:19,15.08849061,0.0001468,53.2165,280.2865,79.2668,280.849,0.00010732,1.421e-05,0.0,0 STARLINK-5449,1 54780U 22175Y   24021.98355356  .00001421  00000-0  10732-3 0  9998,2 54780  53.2165 280.2865 0001468  79.2668 280.8490 15.08849061 60566,6917.853,95.437,540.733,538.702,0.0
54780.0,STARLINK-5449,PAYLOAD,2024-01-22 20:16:20,15.08842119,0.0001835,53.217,276.4169,124.6091,235.5074,5.9027e-05,6.51e-06,0.0,0 STARLINK-5449,1 54780U 22175Y   24022.84467793  .00000651  00000-0  59027-4 0  9998,2 54780  53.2170 276.4169 0001835 124.6091 235.5074 15.08842119 60695,6917.874,95.437,541.008,538.469,0.0
54780.0,STARLINK-5449,PAYLOAD,2024-01-22 21:51:43,15.08840092,0.0001238,53.2169,276.1215,95.9991,264.1142,6.9421e-05,8.17e-06,0.0,0 STARLINK-5449,1 54780U 22175Y   24022.91092008  .00000817  00000-0  69421-4 0  9992,2 54780  53.2169 276.1215 0001238  95.9991 264.1142 15.08840092 62861,6917.88,95.438,540.602,538.889,0.0
54780.0,STARLINK-5449,PAYLOAD,2024-01-22 23:27:06,15.08842727,0.0001262,53.2169,275.8236,101.3741,258.7393,8.8876e-05,1.127e-05,0.0,0 STARLINK-5449,1 54780U 22175Y   24022.97715777  .00001127  00000-0  88876-4 0  9993,2 54780  53.2169 275.8236 0001262 101.3741 258.7393 15.08842727 62877,6917.872,95.437,540.61,538.864,0.0
54780.0,STARLINK-5449,PAYLOAD,2024-01-23 21:42:30,15.08845223,0.0001212,53.2166,271.6607,106.8552,253.2573,8.5902e-05,1.08e-05,0.0,0 STARLINK-5449,1 54780U 22175Y   24023.90451515  .00001080  00000-0  85902-4 0  9999,2 54780  53.2166 271.6607 0001212 106.8552 253.2573 15.08845223 63016,6917.864,95.437,540.568,538.891,0.0
54780.0,STARLINK-5449,PAYLOAD,2024-01-23 23:17:53,15.08847364,0.0001231,53.216,271.3631,103.6,256.513,0.00011201,1.496e-05,0.0,0 STARLINK-5449,1 54780U 22175Y   24023.97075459  .00001496  00000-0  11201-3 0  9996,2 54780  53.2160 271.3631 0001231 103.6000 256.5130 15.08847364 60861,6917.858,95.437,540.574,538.871,0.0
54780.0,STARLINK-5449,PAYLOAD,2024-01-24 19:57:54,15.08839359,0.0001302,53.2171,267.4962,100.7303,259.3836,-6.8604e-05,-1.38e-05,0.0,0 STARLINK-5449,1 54780U 22175Y   24024.83187936 -.00001380  00000-0 -68604-4 0  9990,2 54780  53.2171 267.4962 0001302 100.7303 259.3836 15.08839359 60992,6917.882,95.438,540.648,538.847,0.0
54780.0,STARLINK-5449,PAYLOAD,2024-01-24 21:33:17,15.08840875,0.0001227,53.2178,267.1984,103.22,256.8929,-3.3364e-05,-8.19e-06,0.0,0 STARLINK-5449,1 54780U 22175Y   24024.89812238 -.00000819  00000-0 -33364-4 0  9997,2 54780  53.2178 267.1984 0001227 103.2200 256.8929 15.08840875 63162,6917.878,95.437,540.592,538.894,0.0
54780.0,STARLINK-5449,PAYLOAD,2024-01-25 19:48:43,15.08823851,0.0001585,53.2179,263.0409,117.0255,243.09,-5.5147e-05,-1.165e-05,0.0,0 STARLINK-5449,1 54780U 22175Y   24025.82549958 -.00001165  00000-0 -55147-4 0  9995,2 54780  53.2179 263.0409 0001585 117.0255 243.0900 15.08823851 61148,6917.93,95.439,540.891,538.698,0.0
54780.0,STARLINK-5449,PAYLOAD,2024-01-25 22:59:29,15.08821768,0.0001396,53.2173,262.4448,107.1259,252.9886,-8.649e-05,-1.663e-05,0.0,0 STARLINK-5449,1 54780U 22175Y   24025.95798279 -.00001663  00000-0 -86490-4 0  9999,2 54780  53.2173 262.4448 0001396 107.1259 252.9886 15.08821768 63321,6917.936,95.439,540.767,538.835,0.0
54780.0,STARLINK-5449,PAYLOAD,2024-01-26 19:39:29,15.08829274,0.0001517,53.2164,258.5834,147.8058,212.3027,0.00013799,1.908e-05,0.0,0 STARLINK-5449,1 54780U 22175Y   24026.81909414  .00001908  00000-0  13799-3 0  9991,2 54780  53.2164 258.5834 0001517 147.8058 212.3027 15.08829274 61290,6917.913,95.438,540.828,538.729,0.0
54780.0,STARLINK-5449,PAYLOAD,2024-01-26 22:50:15,15.08842738,0.0001254,53.2161,257.9851,107.6402,252.4727,0.00023978,3.531e-05,0.0,0 STARLINK-5449,1 54780U 22175Y   24026.95156621  .00003531  00000-0  23978-3 0  9994,2 54780  53.2161 257.9851 0001254 107.6402 252.4727 15.08842738 61319,6917.872,95.437,540.605,538.87,0.0
